     2.11           G: GLONASS NAV DATA                     RINEX VERSION / TYPE
LEICA GEO OFFICE 8.4                    4-10-20 09:12       PGM / RUN BY / DATE
                                                            END OF HEADER
 6 20 10  3  4 45  2.0 1.848489046097D-04 0.000000000000D+00-4.914000000000D+05
   -4.501244140625D+03-1.500091552734D+00-9.313225746155D-10 0.000000000000D+00
    1.271419531250D+04-2.558583259583D+00 1.862645149231D-09-4.000000000000D+00
    2.163999365234D+04 1.187902450562D+00-1.862645149231D-09 0.000000000000D+00
 6 20 10  3  5 15  2.0 1.848498359323D-04 0.000000000000D+00-4.896000000000D+05
   -7.636904785156D+03-1.961647987366D+00 0.000000000000D+00 0.000000000000D+00
    8.162933105469D+03-2.452532768250D+00 9.313225746155D-10-4.000000000000D+00
    2.291309765625D+04 2.173805236816D-01-2.793967723846D-09 0.000000000000D+00
 6 20 10  3  5 45  2.0 1.848507672548D-04 0.000000000000D+00-4.878000000000D+05
   -1.145470996094D+04-2.243332862854D+00 9.313225746155D-10 0.000000000000D+00
    4.033976074219D+03-2.099595069885D+00 9.313225746155D-10-4.000000000000D+00
    2.241216650391D+04-7.704210281372D-01-1.862645149231D-09 0.000000000000D+00
 6 20 10  3  6 15  2.0 1.848507672548D-04 0.000000000000D+00-4.860000000000D+05
   -1.556094091797D+04-2.273082733154D+00 1.862645149231D-09 0.000000000000D+00
    7.060527343750D+02-1.578042984009D+00 0.000000000000D+00-4.000000000000D+00
    2.017526318359D+04-1.698904991150D+00-1.862645149231D-09 0.000000000000D+00
 6 20 10  3  6 45  2.0 1.848516985774D-04 0.000000000000D+00-4.842000000000D+05
   -1.946601806641D+04-2.018060684204D+00 1.862645149231D-09 0.000000000000D+00
   -1.607141601563D+03-9.903268814087D-01-9.313225746155D-10-4.000000000000D+00
    1.637516455078D+04-2.495970726013D+00-9.313225746155D-10 0.000000000000D+00
 6 20 10  3  7 15  2.0 1.848544925451D-04 0.000000000000D+00-4.824000000000D+05
   -2.266170947266D+04-1.490786552429D+00 1.862645149231D-09 0.000000000000D+00
   -2.885201660156D+03-4.456787109375D-01-1.862645149231D-09-4.000000000000D+00
    1.130608789063D+04-3.099678039551D+00-9.313225746155D-10 0.000000000000D+00
 7 20 10  3  3 45  2.0-4.054140299559D-05 0.000000000000D+00-4.944600000000D+05
    7.505692382813D+03 2.306156158447D-01-3.725290298462D-09 0.000000000000D+00
    2.431782714844D+04 2.287015914917D-01 9.313225746155D-10 5.000000000000D+00
   -2.020687011719D+03 3.552280426025D+00 0.000000000000D+00 0.000000000000D+00
 7 20 10  3  4 15  2.0-4.054140299559D-05 0.000000000000D+00-4.932000000000D+05
    7.677350585938D+03-7.761096954346D-02-2.793967723846D-09 0.000000000000D+00
    2.396054785156D+04-6.100015640259D-01 1.862645149231D-09 5.000000000000D+00
    4.368947753906D+03 3.501349449158D+00-9.313225746155D-10 0.000000000000D+00
 7 20 10  3  4 45  2.0-4.054140299559D-05 0.000000000000D+00-4.914000000000D+05
    7.107116210938D+03-5.832042694092D-01-2.793967723846D-09 0.000000000000D+00
    2.220934716797D+04-1.303681373596D+00 1.862645149231D-09 5.000000000000D+00
    1.042191699219D+04 3.180688858032D+00-9.313225746155D-10 0.000000000000D+00
 7 20 10  3  5 15  2.0-4.054047167301D-05 0.000000000000D+00-4.896000000000D+05
    5.506708007813D+03-1.206493377686D+00-1.862645149231D-09 0.000000000000D+00
    1.940496240234D+04-1.769208908081D+00 1.862645149231D-09 5.000000000000D+00
    1.567218164063D+04 2.615245819092D+00-1.862645149231D-09 0.000000000000D+00
 7 20 10  3  5 45  2.0-4.054047167301D-05 0.000000000000D+00-4.878000000000D+05
    2.755179687500D+03-1.843814849854D+00-9.313225746155D-10 0.000000000000D+00
    1.600507080078D+04-1.961463928223D+00 1.862645149231D-09 5.000000000000D+00
    1.971574902344D+04 1.848562240601D+00-1.862645149231D-09 0.000000000000D+00
 7 20 10  3  6 15  2.0-4.054047167301D-05 0.000000000000D+00-4.860000000000D+05
   -1.072868652344D+03-2.384594917297D+00 0.000000000000D+00 0.000000000000D+00
    1.250881933594D+04-1.880006790161D+00 1.862645149231D-09 5.000000000000D+00
    2.224132031250D+04 9.394359588623D-01-2.793967723846D-09 0.000000000000D+00
 7 20 10  3  6 45  2.0-4.053860902786D-05 0.000000000000D+00-4.842000000000D+05
   -5.711341308594D+03-2.729623794556D+00 0.000000000000D+00 0.000000000000D+00
    9.375841308594D+03-1.568457603455D+00 9.313225746155D-10 5.000000000000D+00
    2.305392724609D+04-4.248428344727D-02-2.793967723846D-09 0.000000000000D+00
 7 20 10  3  7 15  2.0-4.053860902786D-05 0.000000000000D+00-4.824000000000D+05
   -1.073845605469D+04-2.807583808899D+00 9.313225746155D-10 0.000000000000D+00
    6.952958007813D+03-1.106698989868D+00 0.000000000000D+00 5.000000000000D+00
    2.208988330078D+04-1.021891593933D+00-1.862645149231D-09 0.000000000000D+00
 7 20 10  3  7 45  2.0-4.053860902786D-05 0.000000000000D+00-4.806000000000D+05
   -1.563867480469D+04-2.587151527405D+00 9.313225746155D-10 0.000000000000D+00
    5.420491210938D+03-5.971736907959D-01-9.313225746155D-10 5.000000000000D+00
    1.942194628906D+04-1.923439979553D+00-1.862645149231D-09 0.000000000000D+00
 7 20 10  3  8 15  2.0-4.053860902786D-05 0.000000000000D+00-4.788000000000D+05
   -1.988088867188D+04-2.082694053650D+00 9.313225746155D-10 0.000000000000D+00
    4.766960449219D+03-1.474876403809D-01-1.862645149231D-09 5.000000000000D+00
    1.525424951172D+04-2.677440643311D+00-9.313225746155D-10 0.000000000000D+00
 7 20 10  3  8 45  2.0-4.053954035044D-05 0.000000000000D+00-4.770000000000D+05
   -2.300024755859D+04-1.352553367615D+00 9.313225746155D-10 0.000000000000D+00
    4.796350097656D+03 1.478872299194D-01-2.793967723846D-09 5.000000000000D+00
    9.907198730469D+03-3.225237846375D+00-9.313225746155D-10 0.000000000000D+00
 7 20 10  3  9 15  2.0-4.054047167301D-05 0.000000000000D+00-4.752000000000D+05
   -2.467028125000D+04-4.901037216187D-01 0.000000000000D+00 0.000000000000D+00
    5.166837402344D+03 2.237825393677D-01-3.725290298462D-09 5.000000000000D+00
    3.793284667969D+03-3.523863792419D+00 0.000000000000D+00 0.000000000000D+00
 8 20 10  3  5 15  2.0-5.490984767675D-05 0.000000000000D+00-4.881900000000D+05
    1.547860253906D+04 1.171455383301D-01-2.793967723846D-09 0.000000000000D+00
    2.028781054688D+04-1.150579452515D-01 1.862645149231D-09 6.000000000000D+00
    1.929672851563D+02 3.568023681641D+00 0.000000000000D+00 0.000000000000D+00
 8 20 10  3  5 45  2.0-5.490984767675D-05 0.000000000000D+00-4.878000000000D+05
    1.514216113281D+04-5.162296295166D-01-1.862645149231D-09 0.000000000000D+00
    1.949177490234D+04-7.369680404663D-01 2.793967723846D-09 6.000000000000D+00
    6.525130371094D+03 3.422140121460D+00-9.313225746155D-10 0.000000000000D+00
 8 20 10  3  6 15  2.0-5.490984767675D-05 0.000000000000D+00-4.860000000000D+05
    1.355837353516D+04-1.251904487610D+00-9.313225746155D-10 0.000000000000D+00
    1.777134179688D+04-1.132540702820D+00 2.793967723846D-09 6.000000000000D+00
    1.235410058594D+04 3.012646675110D+00-1.862645149231D-09 0.000000000000D+00
 8 20 10  3  6 45  2.0-5.490891635418D-05 0.000000000000D+00-4.842000000000D+05
    1.063907080078D+04-1.981198310852D+00 0.000000000000D+00 0.000000000000D+00
    1.557307617188D+04-1.265563964844D+00 2.793967723846D-09 6.000000000000D+00
    1.723137548828D+04 2.371602058411D+00-1.862645149231D-09 0.000000000000D+00
 8 20 10  3  7 15  2.0-5.491264164448D-05 0.000000000000D+00-4.824000000000D+05
    6.497247070313D+03-2.592354774475D+00 0.000000000000D+00 0.000000000000D+00
    1.336843017578D+04-1.144843101501D+00 1.862645149231D-09 6.000000000000D+00
    2.078239306641D+04 1.548555374146D+00-1.862645149231D-09 0.000000000000D+00
 8 20 10  3  7 45  2.0-5.491264164448D-05 0.000000000000D+00-4.806000000000D+05
    1.436105468750D+03-2.988701820374D+00 9.313225746155D-10 0.000000000000D+00
    1.157362646484D+04-8.219518661499D-01 9.313225746155D-10 6.000000000000D+00
    2.273471142578D+04 6.067008972168D-01-2.793967723846D-09 0.000000000000D+00
 8 20 10  3  8 15  2.0-5.491171032190D-05 0.000000000000D+00-4.788000000000D+05
   -4.092819335938D+03-3.104363441467D+00 9.313225746155D-10 0.000000000000D+00
    1.048002294922D+04-3.820028305054D-01 0.000000000000D+00 6.000000000000D+00
    2.293840917969D+04-3.818788528442D-01-1.862645149231D-09 0.000000000000D+00
 8 20 10  3  8 45  2.0-5.491171032190D-05 0.000000000000D+00-4.770000000000D+05
   -9.555682617188D+03-2.915044784546D+00 9.313225746155D-10 0.000000000000D+00
    1.020627978516D+04 7.101058959961D-02-9.313225746155D-10 6.000000000000D+00
    2.137733300781D+04-1.341552734375D+00-1.862645149231D-09 0.000000000000D+00
 8 20 10  3  9 15  2.0-5.491077899933D-05 0.000000000000D+00-4.752000000000D+05
   -1.441596777344D+04-2.442152976990D+00 9.313225746155D-10 0.000000000000D+00
    1.068006396484D+04 4.319305419922D-01-1.862645149231D-09 6.000000000000D+00
    1.817046582031D+04-2.198735237122D+00-1.862645149231D-09 0.000000000000D+00
 8 20 10  3  9 45  2.0-5.491077899933D-05 0.000000000000D+00-4.734000000000D+05
   -1.821498193359D+04-1.749615669250D+00 0.000000000000D+00 0.000000000000D+00
    1.165228564453D+04 6.123666763306D-01-2.793967723846D-09 6.000000000000D+00
    1.356326562500D+04-2.887372970581D+00-9.313225746155D-10 0.000000000000D+00
 8 20 10  3 10 15  2.0-5.491077899933D-05 0.000000000000D+00-4.716000000000D+05
   -2.064027685547D+04-9.338159561157D-01 0.000000000000D+00 0.000000000000D+00
    1.274161181641D+04 5.559463500977D-01-2.793967723846D-09 6.000000000000D+00
    7.909475585938D+03-3.353986740112D+00 0.000000000000D+00 0.000000000000D+00
 8 20 10  3 10 45  2.0-5.491171032190D-05 0.000000000000D+00-4.698000000000D+05
   -2.157085449219D+04-1.082029342651D-01-9.313225746155D-10 0.000000000000D+00
    1.350206250000D+04 2.483453750610D-01-2.793967723846D-09 6.000000000000D+00
    1.644541503906D+03-3.561888694763D+00 0.000000000000D+00 0.000000000000D+00
